{
  "links" : {
    "next" : "https://api.nasa.gov/neo/rest/v1/neo/browse?page=2&size=20&api_key=jqAGvNAwUIBu4fl9FSOjdm3V4F7hIglRzI6pdX9d",
    "prev" : "https://api.nasa.gov/neo/rest/v1/neo/browse?page=0&size=20&api_key=jqAGvNAwUIBu4fl9FSOjdm3V4F7hIglRzI6pdX9d",
    "self" : "https://api.nasa.gov/neo/rest/v1/neo/browse?page=1&size=20&api_key=jqAGvNAwUIBu4fl9FSOjdm3V4F7hIglRzI6pdX9d"
  },
  "page" : {
    "size" : 20,
    "total_elements" : 20750,
    "total_pages" : 1038,
    "number" : 1
  },
  "near_earth_objects" : [ {
    "links" : {
      "self" : "https://api.nasa.gov/neo/rest/v1/neo/3092128?api_key=jqAGvNAwUIBu4fl9FSOjdm3V4F7hIglRzI6pdX9d"
    },
    "neo_reference_id" : "3092128",
    "name" : "(1994 TA2)",
    "designation" : "1994 TA2",
    "nasa_jpl_url" : "http://ssd.jpl.nasa.gov/sbdb.cgi?sstr=3092128",
    "absolute_magnitude_h" : 20.3,
    "estimated_diameter" : {
      "kilometers" : {
        "estimated_diameter_min" : 0.2315021222,
        "estimated_diameter_max" : 0.5176544822
      },
      "meters" : {
        "estimated_diameter_min" : 231.5021222103,
        "estimated_diameter_max" : 517.6544821978
      },
      "miles" : {
        "estimated_diameter_min" : 0.1438487052,
        "estimated_diameter_max" : 0.3216554833
      },
      "feet" : {
        "estimated_diameter_min" : 759.5214226325,
        "estimated_diameter_max" : 1698.3415313737
      }
    },
    "is_potentially_hazardous_asteroid" : false,
    "close_approach_data" : [ {
      "close_approach_date" : "1994-08-21",
      "epoch_date_close_approach" : 777452400000,
      "relative_velocity" : {
        "kilometers_per_second" : "4.1034418713",
        "kilometers_per_hour" : "14772.3907366372",
        "miles_per_hour" : "9178.9891218843"
      },
      "miss_distance" : {
        "astronomical" : "0.3257951697",
        "lunar" : "126.7343215942",
        "kilometers" : "48738264",
        "miles" : "30284554"
      },
      "orbiting_body" : "Earth"
    } ],
    "orbital_data" : {
      "orbit_id" : "12",
      "orbit_determination_date" : "2017-04-06 09:18:13",
      "first_observation_date" : "1994-10-09",
      "last_observation_date" : "1994-10-27",
      "data_arc_in_days" : 18,
      "observations_used" : 27,
      "orbit_uncertainty" : "7",
      "minimum_orbit_intersection" : ".260198",
      "jupiter_tisserand_invariant" : "3.177",
      "epoch_osculation" : "2458600.5",
      "eccentricity" : ".5267311176088368",
      "semi_major_axis" : "2.63115523824529",
      "inclination" : "7.01725043161831",
      "ascending_node_longitude" : "200.9095563635586",
      "orbital_period" : "1558.899562680662",
      "perihelion_distance" : "1.245243899002003",
      "perihelion_argument" : "119.2787798944603",
      "aphelion_distance" : "4.017066577488577",
      "perihelion_time" : "2458938.901357101078",
      "mean_anomaly" : "281.8522530425884",
      "mean_motion" : ".230932132267039",
      "equinox" : "J2000",
      "orbit_class" : {
        "orbit_class_type" : "AMO",
        "orbit_class_range" : "1.017 AU < q (perihelion) < 1.3 AU",
        "orbit_class_description" : "Near-Earth asteroid orbits similar to that of 1221 Amor"
      }
    },
    "is_sentry_object" : false
  }, {
    "links" : {
      "self" : "https://api.nasa.gov/neo/rest/v1/neo/3092129?api_key=jqAGvNAwUIBu4fl9FSOjdm3V4F7hIglRzI6pdX9d"
    },
    "neo_reference_id" : "3092129",
    "name" : "(1994 TE2)",
    "designation" : "1994 TE2",
    "nasa_jpl_url" : "http://ssd.jpl.nasa.gov/sbdb.cgi?sstr=3092129",
    "absolute_magnitude_h" : 22.7,
    "estimated_diameter" : {
      "kilometers" : {
        "estimated_diameter_min" : 0.0766575574,
        "estimated_diameter_max" : 0.1714115092
      },
      "meters" : {
        "estimated_diameter_min" : 76.6575573531,
        "estimated_diameter_max" : 171.4115092306
      },
      "miles" : {
        "estimated_diameter_min" : 0.0476327831,
        "estimated_diameter_max" : 0.1065101409
      },
      "feet" : {
        "estimated_diameter_min" : 251.5011804664,
        "estimated_diameter_max" : 562.3737359442
      }
    },
    "is_potentially_hazardous_asteroid" : false,
    "close_approach_data" : [ ],
    "orbital_data" : {
      "orbit_id" : "12",
      "orbit_determination_date" : "2017-04-06 09:18:13",
      "first_observation_date" : "1994-10-11",
      "last_observation_date" : "1994-10-13",
      "data_arc_in_days" : 2,
      "observations_used" : 15,
      "orbit_uncertainty" : "9",
      "minimum_orbit_intersection" : ".258043",
      "jupiter_tisserand_invariant" : "3.490",
      "epoch_osculation" : "2449637.5",
      "eccentricity" : ".4414154948539459",
      "semi_major_axis" : "2.246586454199186",
      "inclination" : "5.681360635966526",
      "ascending_node_longitude" : "198.7884965596334",
      "orbital_period" : "1229.937748549955",
      "perihelion_distance" : "1.254908382786681",
      "perihelion_argument" : "185.076237209411",
      "aphelion_distance" : "3.238264525611692",
      "perihelion_time" : "2449639.559120815319",
      "mean_anomaly" : "359.3972999898663",
      "mean_motion" : ".2926977405355879",
      "equinox" : "J2000",
      "orbit_class" : {
        "orbit_class_type" : "AMO",
        "orbit_class_range" : "1.017 AU < q (perihelion) < 1.3 AU",
        "orbit_class_description" : "Near-Earth asteroid orbits similar to that of 1221 Amor"
      }
    },
    "is_sentry_object" : false
  }, {
    "links" : {
      "self" : "https://api.nasa.gov/neo/rest/v1/neo/3092130?api_key=jqAGvNAwUIBu4fl9FSOjdm3V4F7hIglRzI6pdX9d"
    },
    "neo_reference_id" : "3092130",
    "name" : "(1994 US)",
    "designation" : "1994 US",
    "nasa_jpl_url" : "http://ssd.jpl.nasa.gov/sbdb.cgi?sstr=3092130",
    "absolute_magnitude_h" : 21.0,
    "estimated_diameter" : {
      "kilometers" : {
        "estimated_diameter_min" : 0.1677084622,
        "estimated_diameter_max" : 0.3750075218
      },
      "meters" : {
        "estimated_diameter_min" : 167.7084621628,
        "estimated_diameter_max" : 375.0075217981
      },
      "miles" : {
        "estimated_diameter_min" : 0.1042091748,
        "estimated_diameter_max" : 0.2330187988
      },
      "feet" : {
        "estimated_diameter_min" : 550.2246310023,
        "estimated_diameter_max" : 1230.3396778159
      }
    },
    "is_potentially_hazardous_asteroid" : false,
    "close_approach_data" : [ {
      "close_approach_date" : "1994-09-12",
      "epoch_date_close_approach" : 779353200000,
      "relative_velocity" : {
        "kilometers_per_second" : "5.5007766764",
        "kilometers_per_hour" : "19802.7960349577",
        "miles_per_hour" : "12304.687347388"
      },
      "miss_distance" : {
        "astronomical" : "0.2286111348",
        "lunar" : "88.9297332764",
        "kilometers" : "34199740",
        "miles" : "21250734"
      },
      "orbiting_body" : "Earth"
    } ],
    "orbital_data" : {
      "orbit_id" : "12",
      "orbit_determination_date" : "2017-04-06 09:18:13",
      "first_observation_date" : "1994-10-29",
      "last_observation_date" : "1994-11-11",
      "data_arc_in_days" : 13,
      "observations_used" : 18,
      "orbit_uncertainty" : "8",
      "minimum_orbit_intersection" : ".214908",
      "jupiter_tisserand_invariant" : "3.080",
      "epoch_osculation" : "2449660.5",
      "eccentricity" : ".5700163716259932",
      "semi_major_axis" : "2.736500856110077",
      "inclination" : "8.493338420519144",
      "ascending_node_longitude" : "223.7817581702115",
      "orbital_period" : "1653.452828457993",
      "perihelion_distance" : "1.176650567158787",
      "perihelion_argument" : "121.3652698045077",
      "aphelion_distance" : "4.296351145061368",
      "perihelion_time" : "2449599.393154212242",
      "mean_anomaly" : "13.30456128228865",
      "mean_motion" : ".2177261992625065",
      "equinox" : "J2000",
      "orbit_class" : {
        "orbit_class_type" : "AMO",
        "orbit_class_range" : "1.017 AU < q (perihelion) < 1.3 AU",
        "orbit_class_description" : "Near-Earth asteroid orbits similar to that of 1221 Amor"
      }
    },
    "is_sentry_object" : false
  } ]
}